[{"OBJECT_NAME":"STARLINK-36436","OBJECT_ID":"2026-020K","EPOCH":"2026-03-09T22:00:01.999584","MEAN_MOTION":15.65209547,"ECCENTRICITY":0.00014141,"INCLINATION":42.9994,"RA_OF_ASC_NODE":140.5105,"ARG_OF_PERICENTER":279.0683,"MEAN_ANOMALY":134.0837,"EPHEMERIS_TYPE":0,"CLASSIFICATION_TYPE":"U","NORAD_CAT_ID":67626,"ELEMENT_SET_NO":999,"REV_AT_EPOCH":603,"BSTAR":-0.021856174,"MEAN_MOTION_DOT":-0.01963548,"MEAN_MOTION_DDOT":0},{"OBJECT_NAME":"OBJECT E","OBJECT_ID":"2022-019E","EPOCH":"2026-03-09T23:02:18.608640","MEAN_MOTION":15.54311687,"ECCENTRICITY":0.0007625,"INCLINATION":97.3769,"RA_OF_ASC_NODE":162.7783,"ARG_OF_PERICENTER":112.7188,"MEAN_ANOMALY":247.4872,"EPHEMERIS_TYPE":0,"CLASSIFICATION_TYPE":"U","NORAD_CAT_ID":51828,"ELEMENT_SET_NO":999,"REV_AT_EPOCH":22455,"BSTAR":0.00045599749,"MEAN_MOTION_DOT":0.00029815,"MEAN_MOTION_DDOT":0}]
